LANDSAT 9               
1 49260U 21088A   24099.47162718  .00000538  00000+0  12946-3 0  9990
2 49260  98.1916 170.2567 0001406  84.1178 276.0181 14.57121548134545
